NORAD_CAT_ID,OBJECT_NAME,OBJECT_TYPE,EPOCH,MEAN_MOTION,ECCENTRICITY,INCLINATION,RA_OF_ASC_NODE,ARG_OF_PERICENTER,MEAN_ANOMALY,BSTAR,MEAN_MOTION_DOT,MEAN_MOTION_DDOT,TLE_LINE0,TLE_LINE1,TLE_LINE2,SEMIMAJOR_AXIS,PERIOD,APOGEE,PERIGEE,DECAYED
56790.0,STARLINK-6345,PAYLOAD,2024-05-16 11:40:31,14.98345134,0.0002778,70.0007,174.1546,257.7906,102.2942,-7.4212e-06,-1.82e-06,0.0,0 STARLINK-6345,1 56790U 23078Z   24137.48647001 -.00000182  00000-0 -74212-5 0  9998,2 56790  70.0007 174.1546 0002778 257.7906 102.2942 14.98345134 54473,6950.146,96.106,573.942,570.08,0.0
56790.0,STARLINK-6345,PAYLOAD,2024-05-16 19:41:11,14.98344561,0.0003096,69.9998,173.313,262.96,97.1207,-4.4353e-05,-6.22e-06,0.0,0 STARLINK-6345,1 56790U 23078Z   24137.82026676 -.00000622  00000-0 -44353-4 0  9996,2 56790  69.9998 173.3130 0003096 262.9600  97.1207 14.98344561 54527,6950.148,96.106,574.165,569.861,0.0
56790.0,STARLINK-6345,PAYLOAD,2024-05-17 05:17:59,14.98340817,0.0002914,70.0004,172.3043,262.0045,98.0783,-0.00020199,-2.503e-05,0.0,0 STARLINK-6345,1 56790U 23078Z   24138.22083027 -.00002503  00000-0 -20199-3 0  9995,2 56790  70.0004 172.3043 0002914 262.0045  98.0783 14.98340817 54846,6950.159,96.106,574.05,569.999,0.0
56790.0,STARLINK-6345,PAYLOAD,2024-05-17 11:42:31,14.9833997,0.0002952,70.0003,171.6308,261.3784,98.7041,-0.00020094,-2.49e-05,0.0,0 STARLINK-6345,1 56790U 23078Z   24138.48786870 -.00002490  00000-0 -20094-3 0  9998,2 56790  70.0003 171.6308 0002952 261.3784  98.7041 14.98339970 54623,6950.162,96.106,574.079,569.975,0.0
56790.0,STARLINK-6345,PAYLOAD,2024-05-18 11:44:32,14.98344587,0.0003077,70.0001,169.1059,267.2921,92.7886,-0.0003033,-3.711e-05,0.0,0 STARLINK-6345,1 56790U 23078Z   24139.48926370 -.00003711  00000-0 -30330-3 0  9991,2 56790  70.0001 169.1059 0003077 267.2921  92.7886 14.98344587 55030,6950.148,96.106,574.151,569.874,0.0
56790.0,STARLINK-6345,PAYLOAD,2024-05-18 19:45:13,14.98330574,0.0002976,70.0,168.262,268.5949,91.4869,-9.5985e-05,-1.238e-05,0.0,0 STARLINK-6345,1 56790U 23078Z   24139.82306765 -.00001238  00000-0 -95985-4 0  9999,2 56790  70.0000 168.2620 0002976 268.5949  91.4869 14.98330574 55087,6950.191,96.107,574.124,569.988,0.0
56790.0,STARLINK-6345,PAYLOAD,2024-05-19 11:46:33,14.98326182,0.000303,69.9997,166.5788,268.3131,91.7681,4.8216e-06,-3.5e-07,0.0,0 STARLINK-6345,1 56790U 23078Z   24140.49066881 -.00000035  00000-0  48216-5 0  9995,2 56790  69.9997 166.5788 0003030 268.3131  91.7681 14.98326182 54925,6950.205,96.107,574.176,569.964,0.0
56790.0,STARLINK-6345,PAYLOAD,2024-05-20 03:47:54,14.98330835,0.0003085,69.9995,164.8958,268.76,91.3205,4.4375e-05,4.37e-06,0.0,0 STARLINK-6345,1 56790U 23078Z   24141.15826528  .00000437  00000-0  44375-4 0  9997,2 56790  69.9995 164.8958 0003085 268.7600  91.3205 14.98330835 55286,6950.19,96.107,574.199,569.911,0.0
56790.0,STARLINK-6345,PAYLOAD,2024-05-20 11:48:34,14.98332055,0.0003078,69.9995,164.0543,268.856,91.2247,5.4362e-05,5.56e-06,0.0,0 STARLINK-6345,1 56790U 23078Z   24141.49206398  .00000556  00000-0  54362-4 0  9990,2 56790  69.9995 164.0543 0003078 268.8560  91.2247 14.98332055 55074,6950.187,96.107,574.191,569.912,0.0
56790.0,STARLINK-6345,PAYLOAD,2024-05-21 03:49:55,14.98328168,0.0003026,69.9995,162.371,268.8735,91.2077,2.9624e-05,2.6e-06,0.0,0 STARLINK-6345,1 56790U 23078Z   24142.15966699  .00000260  00000-0  29624-4 0  9996,2 56790  69.9995 162.3710 0003026 268.8735  91.2077 14.98328168 55439,6950.199,96.107,574.167,569.96,0.0
56790.0,STARLINK-6345,PAYLOAD,2024-05-21 08:38:19,14.98327036,0.0003039,69.9996,161.8662,270.2956,89.7855,2.0944e-05,1.57e-06,0.0,0 STARLINK-6345,1 56790U 23078Z   24142.35994823  .00000157  00000-0  20944-4 0  9999,2 56790  69.9996 161.8662 0003039 270.2956  89.7855 14.98327036 55200,6950.202,96.107,574.179,569.955,0.0
56790.0,STARLINK-6345,PAYLOAD,2024-05-22 03:51:56,14.98329595,0.0003069,69.9995,159.8469,270.0077,90.0731,-4.8253e-05,-6.69e-06,0.0,0 STARLINK-6345,1 56790U 23078Z   24143.16106843 -.00000669  00000-0 -48253-4 0  9999,2 56790  69.9995 159.8469 0003069 270.0077  90.0731 14.98329595 55587,6950.194,96.107,574.192,569.926,0.0
56790.0,STARLINK-6345,PAYLOAD,2024-05-22 08:40:20,14.98329258,0.0003065,69.9995,159.3419,268.4435,91.6373,-2.3392e-05,-3.72e-06,0.0,0 STARLINK-6345,1 56790U 23078Z   24143.36134783 -.00000372  00000-0 -23392-4 0  9993,2 56790  69.9995 159.3419 0003065 268.4435  91.6373 14.98329258 55352,6950.195,96.107,574.19,569.93,0.0
56790.0,STARLINK-6345,PAYLOAD,2024-05-23 03:53:56,14.98331894,0.000314,69.9992,157.3218,268.9717,91.1082,3.3044e-05,3.01e-06,0.0,0 STARLINK-6345,1 56790U 23078Z   24144.16246339  .00000301  00000-0  33044-4 0  9998,2 56790  69.9992 157.3218 0003140 268.9717  91.1082 14.98331894 55739,6950.187,96.107,574.234,569.87,0.0
56790.0,STARLINK-6345,PAYLOAD,2024-05-23 10:18:28,14.98333193,0.0003063,69.9995,156.6489,267.2724,92.8085,5.0631e-05,5.11e-06,0.0,0 STARLINK-6345,1 56790U 23078Z   24144.42950153  .00000511  00000-0  50631-4 0  9997,2 56790  69.9995 156.6489 0003063 267.2724  92.8085 14.98333193 55519,6950.183,96.107,574.177,569.919,0.0
56790.0,STARLINK-6345,PAYLOAD,2024-05-24 03:55:57,14.98329428,0.0003089,69.9992,154.7977,268.1249,91.9556,8.3427e-06,7e-08,0.0,0 STARLINK-6345,1 56790U 23078Z   24145.16386409  .00000007  00000-0  83427-5 0  9996,2 56790  69.9992 154.7977 0003089 268.1249  91.9556 14.98329428 55886,6950.195,96.107,574.207,569.913,0.0
56790.0,STARLINK-6345,PAYLOAD,2024-05-24 10:20:30,14.98329145,0.0003115,69.9992,154.1243,268.6913,91.389,3.0455e-06,-5.7e-07,0.0,0 STARLINK-6345,1 56790U 23078Z   24145.43090437 -.00000057  00000-0  30455-5 0  9998,2 56790  69.9992 154.1243 0003115 268.6913  91.3890 14.98329145 55666,6950.196,96.107,574.226,569.896,0.0
56790.0,STARLINK-6345,PAYLOAD,2024-05-24 23:09:34,14.98331535,0.0003091,69.9993,152.777,271.5401,88.5404,-4.0983e-05,-5.82e-06,0.0,0 STARLINK-6345,1 56790U 23078Z   24145.96498408 -.00000582  00000-0 -40983-4 0  9996,2 56790  69.9993 152.7770 0003091 271.5401  88.5404 14.98331535 55748,6950.188,96.107,574.201,569.905,0.0
56790.0,STARLINK-6345,PAYLOAD,2024-05-25 03:57:58,14.98330692,0.000309,69.9992,152.2719,270.98,89.1005,-4.7026e-05,-6.54e-06,0.0,0 STARLINK-6345,1 56790U 23078Z   24146.16526449 -.00000654  00000-0 -47026-4 0  9991,2 56790  69.9992 152.2719 0003090 270.9800  89.1005 14.98330692 56030,6950.191,96.107,574.203,569.908,0.0
56790.0,STARLINK-6345,PAYLOAD,2024-05-25 10:22:31,14.98330941,0.0003082,69.9993,151.5986,271.0439,89.0367,-3.8837e-05,-5.56e-06,0.0,0 STARLINK-6345,1 56790U 23078Z   24146.43230389 -.00000556  00000-0 -38837-4 0  9997,2 56790  69.9993 151.5986 0003082 271.0439  89.0367 14.98330941 55812,6950.19,96.107,574.197,569.913,0.0
56790.0,STARLINK-6345,PAYLOAD,2024-05-26 03:59:59,14.98329937,0.0003129,69.9991,149.7472,270.7515,89.3286,1.5889e-05,9.7e-07,0.0,0 STARLINK-6345,1 56790U 23078Z   24147.16666211  .00000097  00000-0  15889-4 0  9995,2 56790  69.9991 149.7472 0003129 270.7515  89.3286 14.98329937 56189,6950.193,96.107,574.233,569.883,0.0
56790.0,STARLINK-6345,PAYLOAD,2024-05-26 10:24:31,14.98330594,0.0003128,69.9989,149.0738,270.8331,89.247,2.2927e-05,1.81e-06,0.0,0 STARLINK-6345,1 56790U 23078Z   24147.43370134  .00000181  00000-0  22927-4 0  9996,2 56790  69.9989 149.0738 0003128 270.8331  89.2470 14.98330594 55960,6950.191,96.107,574.23,569.882,0.0
56790.0,STARLINK-6345,PAYLOAD,2024-05-26 23:13:36,14.98325627,0.0003084,69.9989,147.7271,271.1773,88.9033,-1.7294e-05,-2.99e-06,0.0,0 STARLINK-6345,1 56790U 23078Z   24147.96778628 -.00000299  00000-0 -17294-4 0  9997,2 56790  69.9989 147.7271 0003084 271.1773  88.9033 14.98325627 56044,6950.206,96.107,574.215,569.928,0.0
56790.0,STARLINK-6345,PAYLOAD,2024-05-27 04:02:00,14.98326488,0.0003107,69.9989,147.2222,270.941,89.1393,-7.7381e-06,-1.85e-06,0.0,0 STARLINK-6345,1 56790U 23078Z   24148.16806569 -.00000185  00000-0 -77381-5 0  9994,2 56790  69.9989 147.2222 0003107 270.9410  89.1393 14.98326488 56336,6950.204,96.107,574.228,569.909,0.0
56790.0,STARLINK-6345,PAYLOAD,2024-05-27 10:26:33,14.98326644,0.0003072,69.9992,146.5488,269.5577,90.523,-6.0255e-06,-1.65e-06,0.0,0 STARLINK-6345,1 56790U 23078Z   24148.43510586 -.00000165  00000-0 -60255-5 0  9995,2 56790  69.9992 146.5488 0003072 269.5577  90.5230 14.98326644 56111,6950.203,96.107,574.203,569.933,0.0
56790.0,STARLINK-6345,PAYLOAD,2024-05-27 16:51:05,14.98327364,0.0003041,69.9991,145.8754,272.1865,87.8946,-2.5099e-05,-3.92e-06,0.0,0 STARLINK-6345,1 56790U 23078Z   24148.70214666 -.00000392  00000-0 -25099-4 0  9993,2 56790  69.9991 145.8754 0003041 272.1865  87.8946 14.98327364 56151,6950.201,96.107,574.18,569.952,0.0
56790.0,STARLINK-6345,PAYLOAD,2024-05-28 05:40:09,14.98331286,0.0003104,69.9988,144.5289,269.7813,90.2991,-2.5788e-06,-1.24e-06,0.0,0 STARLINK-6345,1 56790U 23078Z   24149.23622268 -.00000124  00000-0 -25788-5 0  9992,2 56790  69.9988 144.5289 0003104 269.7813  90.2991 14.98331286 56494,6950.189,96.107,574.211,569.897,0.0
56790.0,STARLINK-6345,PAYLOAD,2024-05-28 08:52:25,14.98331351,0.0003113,69.9989,144.1924,270.5844,89.4958,-1.6618e-06,-1.13e-06,0.0,0 STARLINK-6345,1 56790U 23078Z   24149.36974257 -.00000113  00000-0 -16618-5 0  9994,2 56790  69.9989 144.1924 0003113 270.5844  89.4958 14.98331351 56251,6950.189,96.107,574.217,569.89,0.0
56790.0,STARLINK-6345,PAYLOAD,2024-05-29 08:54:26,14.98332522,0.0003189,69.9989,141.668,270.95,89.1294,5.2088e-05,5.29e-06,0.0,0 STARLINK-6345,1 56790U 23078Z   24150.37113936  .00000529  00000-0  52088-4 0  9995,2 56790  69.9989 141.6680 0003189 270.9500  89.1294 14.98332522 56664,6950.185,96.107,574.267,569.834,0.0
56790.0,STARLINK-6345,PAYLOAD,2024-05-30 04:08:03,14.98326916,0.0003069,69.9992,139.6483,269.399,90.6817,-4.0348e-05,-5.74e-06,0.0,0 STARLINK-6345,1 56790U 23078Z   24151.17226539 -.00000574  00000-0 -40348-4 0  9996,2 56790  69.9992 139.6483 0003069 269.3990  90.6817 14.98326916 56789,6950.202,96.107,574.2,569.934,0.0
